OBJECT_NAME,OBJECT_ID,EPOCH,MEAN_MOTION,ECCENTRICITY,INCLINATION,RA_OF_ASC_NODE,ARG_OF_PERICENTER,MEAN_ANOMALY,EPHEMERIS_TYPE,CLASSIFICATION_TYPE,NORAD_CAT_ID,ELEMENT_SET_NO,REV_AT_EPOCH,BSTAR,MEAN_MOTION_DOT,MEAN_MOTION_DDOT
GOMX-1,2013-066Q,2026-06-27T12:51:49.885920,14.69495147,.012975,97.6484,18.3455,44.7085,316.4494,0,U,39430,999,67143,.31566E-3,.2079E-4,0
CUBEBUG-2 (LO-74),2013-066AA,2026-06-27T10:41:51.592128,14.93843373,.005737,97.8904,127.4676,355.1187,4.9465,0,U,39440,999,67852,.418E-3,.4522E-4,0
NEE-02 KRYSAOR,2013-066AB,2026-06-27T08:56:26.204064,14.86663245,.006707,97.8893,117.5146,37.4749,323.1115,0,U,39441,999,67771,.32355E-3,.2935E-4,0
FUNCUBE-1 (AO-73),2013-066AE,2026-06-27T11:07:37.174944,15.09608220,.0036701,97.8272,150.1245,165.9827,194.2429,0,U,39444,999,68121,.43065E-3,.6965E-4,0
UWE-3,2013-066AG,2026-06-27T09:00:10.711008,14.97105465,.0046852,97.8711,134.5185,286.5601,73.0477,0,U,39446,999,67910,.33924E-3,.3939E-4,0
SMDC ONE 2.4,2013-072H,2026-06-27T11:23:43.658304,15.18381665,.014666,120.4934,31.8090,29.9221,331.0141,0,U,39469,999,11939,.4255E-3,.11317E-3,0
COSMOS 2488 (RODNIK-S 7),2013-076A,2026-06-27T12:03:16.953120,12.42906025,.0020885,82.4830,162.2681,74.0737,286.2642,0,U,39483,999,56717,.12999E-3,.28E-6,0
COSMOS 2489 (RODNIK-S 8),2013-076B,2026-06-27T11:27:53.128800,12.42879897,.0022693,82.4866,163.6656,74.0425,286.3152,0,U,39484,999,56722,.47076E-3,.75E-6,0
COSMOS 2490 (RODNIK-S 9),2013-076C,2026-06-27T10:47:25.704384,12.42878949,.0022877,82.4813,161.7461,88.8509,271.5191,0,U,39485,999,56715,.7053E-3,.108E-5,0
KAZEOSAT 1,2014-024A,2026-06-27T11:58:12.734400,14.42084594,.0001245,98.3208,250.6899,75.1936,284.9392,0,U,39731,999,64004,.133E-3,.394E-5,0
COSMOS 2496 (RODNIK-S 10),2014-028A,2026-06-27T11:42:09.250848,12.42878571,.0021316,82.4454,102.2802,57.6610,302.6529,0,U,39761,999,54879,-.65575E-3,-.81E-6,0
COSMOS 2497 (RODNIK-S 11),2014-028B,2026-06-27T13:02:17.094624,12.42894315,.0021837,82.4502,103.9390,52.7598,307.5469,0,U,39762,999,54880,-.73368E-3,-.92E-6,0
COSMOS 2498 (RODNIK-S 12),2014-028C,2026-06-27T12:28:59.979360,12.42980429,.0022548,82.4462,102.4362,52.4287,307.8836,0,U,39763,999,54883,-.14166E-3,-.1E-6,0
HODOYOSHI-4,2014-033B,2026-06-27T12:33:46.602720,14.88148873,.0022078,97.5451,2.8469,271.8268,88.0421,0,U,40011,999,65034,.14246E-3,.1265E-4,0
UNISAT-6,2014-033C,2026-06-27T10:04:47.606880,14.88293600,.0045636,97.7883,330.9523,36.3375,324.0925,0,U,40012,999,64768,.29484E-3,.2722E-4,0
DEIMOS-2,2014-033D,2026-06-27T11:58:56.440704,14.93751172,.0001145,97.5826,52.6256,53.7590,306.3736,0,U,40013,999,63926,.82526E-4,.82E-5,0
BUGSAT-1 (TITA),2014-033E,2026-06-27T12:48:13.058208,15.15700431,.0028764,98.0432,271.6874,143.7423,216.5765,0,U,40014,999,65740,.38036E-3,.7245E-4,0
SAUDISAT 4,2014-033G,2026-06-27T09:33:50.292000,14.79556943,.0045688,97.7593,324.1804,41.6411,318.8265,0,U,40016,999,64758,.8637E-4,.606E-5,0
APRIZESAT 9,2014-033J,2026-06-27T07:42:00.950112,14.74228562,.0066488,97.9071,311.2723,166.5710,193.7288,0,U,40018,999,64505,.12014E-3,.77E-5,0
BRITE-CA1 (TORONTO),2014-033L,2026-06-27T08:46:04.664064,14.72691852,.0077363,97.9749,307.1062,243.8589,115.4646,0,U,40020,999,64371,.13812E-3,.868E-5,0
DUCHIFAT-1,2014-033M,2026-06-27T02:53:51.999936,15.66663856,.00010124,98.0447,238.6906,103.7667,256.3704,0,U,40021,999,65730,.11663849E-2,.123708E-2,0
NANOSATC-BR1,2014-033Q,2026-06-27T01:41:46.088448,15.31766053,.00050752,98.0720,211.3356,138.8301,221.3322,0,U,40024,999,65549,.58278837E-3,.17817E-3,0
QB50P1,2014-033R,2026-06-27T07:10:49.850112,15.18409172,.0008862,98.0962,190.1548,179.4885,180.6358,0,U,40025,999,65456,.42669E-3,.8713E-4,0
